[{"OBJECT_NAME":"EXACTVIEW-1 (ADS-1B)","OBJECT_ID":"2012-039C","EPOCH":"2026-03-09T21:13:50.174400","MEAN_MOTION":14.24951198,"ECCENTRICITY":0.00118702,"INCLINATION":98.9638,"RA_OF_ASC_NODE":184.1041,"ARG_OF_PERICENTER":97.8489,"MEAN_ANOMALY":262.4037,"EPHEMERIS_TYPE":0,"CLASSIFICATION_TYPE":"U","NORAD_CAT_ID":38709,"ELEMENT_SET_NO":999,"REV_AT_EPOCH":70856,"BSTAR":0.0001068616,"MEAN_MOTION_DOT":2.04e-6,"MEAN_MOTION_DDOT":0},{"OBJECT_NAME":"FENGYUN 1C DEB","OBJECT_ID":"1999-025DXF","EPOCH":"2026-02-28T17:44:09.244032","MEAN_MOTION":14.17536715,"ECCENTRICITY":0.00624036,"INCLINATION":99.1263,"RA_OF_ASC_NODE":345.109,"ARG_OF_PERICENTER":69.0257,"MEAN_ANOMALY":291.7579,"EPHEMERIS_TYPE":0,"CLASSIFICATION_TYPE":"U","NORAD_CAT_ID":36278,"ELEMENT_SET_NO":999,"REV_AT_EPOCH":94581,"BSTAR":0.00044643264,"MEAN_MOTION_DOT":8.77e-6,"MEAN_MOTION_DDOT":0}]
